OBJECT_NAME,OBJECT_ID,EPOCH,MEAN_MOTION,ECCENTRICITY,INCLINATION,RA_OF_ASC_NODE,ARG_OF_PERICENTER,MEAN_ANOMALY,EPHEMERIS_TYPE,CLASSIFICATION_TYPE,NORAD_CAT_ID,ELEMENT_SET_NO,REV_AT_EPOCH,BSTAR,MEAN_MOTION_DOT,MEAN_MOTION_DDOT
ONEWEB-0707,2024-188U,2026-06-25T03:50:09.158208,13.10385912,.00022811,87.8831,34.6718,97.1634,262.9753,0,U,61612,999,8436,-.71074648E-2,-.2468E-4,0
ONEWEB-0708,2024-188V,2026-06-25T02:27:05.213952,13.10358220,.00023233,87.8825,34.7010,79.1747,280.9642,0,U,61613,999,8433,.82082471E-2,.2878E-4,0
